[{"OBJECT_NAME":"TEIKYOSAT-4 (OORURI)","OBJECT_ID":"2021-102B","EPOCH":"2026-03-09T16:12:29.535840","MEAN_MOTION":15.09119208,"ECCENTRICITY":0.00103447,"INCLINATION":97.3797,"RA_OF_ASC_NODE":101.9931,"ARG_OF_PERICENTER":276.5421,"MEAN_ANOMALY":83.463,"EPHEMERIS_TYPE":0,"CLASSIFICATION_TYPE":"U","NORAD_CAT_ID":49396,"ELEMENT_SET_NO":999,"REV_AT_EPOCH":23771,"BSTAR":0.00015739844,"MEAN_MOTION_DOT":2.438e-5,"MEAN_MOTION_DDOT":0},{"OBJECT_NAME":"STARLINK-5203","OBJECT_ID":"2022-136BF","EPOCH":"2026-03-09T21:41:59.150112","MEAN_MOTION":15.08836291,"ECCENTRICITY":0.00013981,"INCLINATION":53.2167,"RA_OF_ASC_NODE":297.7192,"ARG_OF_PERICENTER":80.1159,"MEAN_ANOMALY":279.9991,"EPHEMERIS_TYPE":0,"CLASSIFICATION_TYPE":"U","NORAD_CAT_ID":54104,"ELEMENT_SET_NO":999,"REV_AT_EPOCH":18751,"BSTAR":8.871821e-6,"MEAN_MOTION_DOT":-1.47e-6,"MEAN_MOTION_DDOT":0}]
